SL-12 R/B(2)            
1 23845U 96021D   26115.62139874 -.00000085  00000+0  00000+0 0  9997
2 23845   5.1142 233.1049 3987103 270.3582  99.6842  1.64337940180348
GALAXY 9 (G-9)          
1 23877U 96033A   26115.73057334 -.00000225  00000+0  00000+0 0  9993
2 23877  11.9946  32.8557 0007413 176.0968  13.2770  0.99537907 45830
DELTA 2 R/B(2)          
1 23879U 96033C   26115.57803983 -.00000068  00000+0  00000+0 0  9991
2 23879  23.0596 283.1050 6786042 357.3878   0.2538  2.11149416 95819
GORIZONT 32             
1 23880U 96034A   26116.45401851 -.00000174  00000+0  00000+0 0  9998
2 23880  14.3901 355.3796 0009050 357.7156 182.8411  1.00222822109517
TURKSAT 1C              
1 23949U 96040B   26115.74816758 -.00000288  00000+0  00000+0 0  9994
2 23949  11.9809  30.5846 0003103 188.8178 356.0804  1.00373198109155
UFO 7 (USA 127)         
1 23967U 96042A   26115.06095353 -.00000273  00000+0  00000+0 0  9995
2 23967  11.0675  17.3754 0006719  95.6374  86.6978  1.00230837108954
ITALSAT 2               
1 24208U 96044A   26116.38889933  .00000088  00000+0  00000+0 0  9990
2 24208  13.7715   7.2132 0021796 151.2928  25.0826  1.00778943109079
ZHONGXING-7             
1 24282U 96048A   26112.90530934 -.00000087  00000+0  00000+0 0  9994
2 24282  16.6069 185.3790 3515257 267.2151 320.1705  1.06659048118123
INMARSAT 3-F2           
1 24307U 96053A   26116.47587071  .00000094  00000+0  00000+0 0  9995
2 24307   9.7422  54.4550 0006675 345.1955 185.8609  0.99994255108403
ECHOSTAR 2              
1 24313U 96055A   26116.35937921 -.00000217  00000+0  00000+0 0  9992
2 24313  11.8858  31.9744 0010342  85.1842 137.4739  1.00344446108494
AMC-1 (GE-1)            
1 24315U 96054A   26116.47448619  .00000047  00000+0  00000+0 0  9997
2 24315   9.0018  59.6771 0007822 244.1035 284.9705  0.99507651 45723
EXPRESS 2               
1 24435U 96058A   26116.13566448 -.00000261  00000+0  00000+0 0  9997
2 24435  14.5740 354.7536 0010669 356.7509   0.3611  1.00326361108283
SL-12 R/B(2)            
1 24438U 96058D   26116.28680758  .00000111  00000+0  00000+0 0  9990
2 24438  14.3881 351.4567 0007385 123.2553 236.7142  1.00261603108310
AFRICASAT-2 (MEASAT-2)  
1 24653U 96063B   26115.13219381 -.00000292  00000+0  00000+0 0  9999
2 24653  12.1801  29.3893 0004057 208.4624 347.3502  0.99659398107753
INMARSAT 3-F3           
1 24674U 96070A   26116.29946097 -.00000247  00000+0  00000+0 0  9999
2 24674  10.2082  50.1401 0004732 322.9242  46.8179  0.99978274107399
ATLAS 2A CENTAUR R/B    
1 24675U 96070B   26116.41779169  .00000040  00000+0  00000+0 0  9998
2 24675  22.1304 164.6135 7005974 326.6259 271.7131  2.22633895238767
ISO DEB                 
1 24700U 95062C   26116.45471183 -.00000650  00000+0  00000+0 0  9994
2 24700   3.1260  26.9066 8240433  19.1027  22.7861  1.00141895 42472
