[{"OBJECT_NAME":"SL-12 R/B(2)","OBJECT_ID":"1996-021D","EPOCH":"2026-04-25T14:54:48.851136","MEAN_MOTION":1.6433794,"ECCENTRICITY":0.39871039,"INCLINATION":5.1142,"RA_OF_ASC_NODE":233.1049,"ARG_OF_PERICENTER":270.3582,"MEAN_ANOMALY":99.6842,"EPHEMERIS_TYPE":0,"CLASSIFICATION_TYPE":"U","NORAD_CAT_ID":23845,"ELEMENT_SET_NO":999,"REV_AT_EPOCH":18034,"BSTAR":0,"MEAN_MOTION_DOT":-8.5e-7,"MEAN_MOTION_DDOT":0},{"OBJECT_NAME":"GALAXY 9 (G-9)","OBJECT_ID":"1996-033A","EPOCH":"2026-04-25T17:32:01.536576","MEAN_MOTION":0.99537907,"ECCENTRICITY":0.00074134,"INCLINATION":11.9946,"RA_OF_ASC_NODE":32.8557,"ARG_OF_PERICENTER":176.0968,"MEAN_ANOMALY":13.277,"EPHEMERIS_TYPE":0,"CLASSIFICATION_TYPE":"U","NORAD_CAT_ID":23877,"ELEMENT_SET_NO":999,"REV_AT_EPOCH":4583,"BSTAR":0,"MEAN_MOTION_DOT":-2.25e-6,"MEAN_MOTION_DDOT":0},{"OBJECT_NAME":"DELTA 2 R/B(2)","OBJECT_ID":"1996-033C","EPOCH":"2026-04-25T13:52:22.641312","MEAN_MOTION":2.11149416,"ECCENTRICITY":0.67860423,"INCLINATION":23.0596,"RA_OF_ASC_NODE":283.105,"ARG_OF_PERICENTER":357.3878,"MEAN_ANOMALY":0.2538,"EPHEMERIS_TYPE":0,"CLASSIFICATION_TYPE":"U","NORAD_CAT_ID":23879,"ELEMENT_SET_NO":999,"REV_AT_EPOCH":9581,"BSTAR":0,"MEAN_MOTION_DOT":-6.8e-7,"MEAN_MOTION_DDOT":0},{"OBJECT_NAME":"GORIZONT 32","OBJECT_ID":"1996-034A","EPOCH":"2026-04-26T10:53:47.199264","MEAN_MOTION":1.00222822,"ECCENTRICITY":0.000905,"INCLINATION":14.3901,"RA_OF_ASC_NODE":355.3796,"ARG_OF_PERICENTER":357.7156,"MEAN_ANOMALY":182.8411,"EPHEMERIS_TYPE":0,"CLASSIFICATION_TYPE":"U","NORAD_CAT_ID":23880,"ELEMENT_SET_NO":999,"REV_AT_EPOCH":10951,"BSTAR":0,"MEAN_MOTION_DOT":-1.74e-6,"MEAN_MOTION_DDOT":0},{"OBJECT_NAME":"TURKSAT 1C","OBJECT_ID":"1996-040B","EPOCH":"2026-04-25T17:57:21.678912","MEAN_MOTION":1.00373198,"ECCENTRICITY":0.00031037,"INCLINATION":11.9809,"RA_OF_ASC_NODE":30.5846,"ARG_OF_PERICENTER":188.8178,"MEAN_ANOMALY":356.0804,"EPHEMERIS_TYPE":0,"CLASSIFICATION_TYPE":"U","NORAD_CAT_ID":23949,"ELEMENT_SET_NO":999,"REV_AT_EPOCH":10915,"BSTAR":0,"MEAN_MOTION_DOT":-2.88e-6,"MEAN_MOTION_DDOT":0},{"OBJECT_NAME":"UFO 7 (USA 127)","OBJECT_ID":"1996-042A","EPOCH":"2026-04-25T01:27:46.384992","MEAN_MOTION":1.00230837,"ECCENTRICITY":0.00067197,"INCLINATION":11.0675,"RA_OF_ASC_NODE":17.3754,"ARG_OF_PERICENTER":95.6374,"MEAN_ANOMALY":86.6978,"EPHEMERIS_TYPE":0,"CLASSIFICATION_TYPE":"U","NORAD_CAT_ID":23967,"ELEMENT_SET_NO":999,"REV_AT_EPOCH":10895,"BSTAR":0,"MEAN_MOTION_DOT":-2.73e-6,"MEAN_MOTION_DDOT":0},{"OBJECT_NAME":"ITALSAT 2","OBJECT_ID":"1996-044A","EPOCH":"2026-04-26T09:20:00.902112","MEAN_MOTION":1.00778943,"ECCENTRICITY":0.0021796,"INCLINATION":13.7715,"RA_OF_ASC_NODE":7.2132,"ARG_OF_PERICENTER":151.2928,"MEAN_ANOMALY":25.0826,"EPHEMERIS_TYPE":0,"CLASSIFICATION_TYPE":"U","NORAD_CAT_ID":24208,"ELEMENT_SET_NO":999,"REV_AT_EPOCH":10907,"BSTAR":0,"MEAN_MOTION_DOT":8.8e-7,"MEAN_MOTION_DDOT":0},{"OBJECT_NAME":"ZHONGXING-7","OBJECT_ID":"1996-048A","EPOCH":"2026-04-22T21:43:38.726976","MEAN_MOTION":1.06659048,"ECCENTRICITY":0.35152577,"INCLINATION":16.6069,"RA_OF_ASC_NODE":185.379,"ARG_OF_PERICENTER":267.2151,"MEAN_ANOMALY":320.1705,"EPHEMERIS_TYPE":0,"CLASSIFICATION_TYPE":"U","NORAD_CAT_ID":24282,"ELEMENT_SET_NO":999,"REV_AT_EPOCH":11812,"BSTAR":0,"MEAN_MOTION_DOT":-8.7e-7,"MEAN_MOTION_DDOT":0},{"OBJECT_NAME":"INMARSAT 3-F2","OBJECT_ID":"1996-053A","EPOCH":"2026-04-26T11:25:15.229344","MEAN_MOTION":0.99994255,"ECCENTRICITY":0.0006675,"INCLINATION":9.7422,"RA_OF_ASC_NODE":54.455,"ARG_OF_PERICENTER":345.1955,"MEAN_ANOMALY":185.8609,"EPHEMERIS_TYPE":0,"CLASSIFICATION_TYPE":"U","NORAD_CAT_ID":24307,"ELEMENT_SET_NO":999,"REV_AT_EPOCH":10840,"BSTAR":0,"MEAN_MOTION_DOT":9.4e-7,"MEAN_MOTION_DDOT":0},{"OBJECT_NAME":"ECHOSTAR 2","OBJECT_ID":"1996-055A","EPOCH":"2026-04-26T08:37:30.363744","MEAN_MOTION":1.00344446,"ECCENTRICITY":0.0010342,"INCLINATION":11.8858,"RA_OF_ASC_NODE":31.9744,"ARG_OF_PERICENTER":85.1842,"MEAN_ANOMALY":137.4739,"EPHEMERIS_TYPE":0,"CLASSIFICATION_TYPE":"U","NORAD_CAT_ID":24313,"ELEMENT_SET_NO":999,"REV_AT_EPOCH":10849,"BSTAR":0,"MEAN_MOTION_DOT":-2.17e-6,"MEAN_MOTION_DDOT":0},{"OBJECT_NAME":"AMC-1 (GE-1)","OBJECT_ID":"1996-054A","EPOCH":"2026-04-26T11:23:15.606816","MEAN_MOTION":0.99507651,"ECCENTRICITY":0.0007822,"INCLINATION":9.0018,"RA_OF_ASC_NODE":59.6771,"ARG_OF_PERICENTER":244.1035,"MEAN_ANOMALY":284.9705,"EPHEMERIS_TYPE":0,"CLASSIFICATION_TYPE":"U","NORAD_CAT_ID":24315,"ELEMENT_SET_NO":999,"REV_AT_EPOCH":4572,"BSTAR":0,"MEAN_MOTION_DOT":4.7e-7,"MEAN_MOTION_DDOT":0},{"OBJECT_NAME":"EXPRESS 2","OBJECT_ID":"1996-058A","EPOCH":"2026-04-26T03:15:21.411072","MEAN_MOTION":1.00326361,"ECCENTRICITY":0.0010669,"INCLINATION":14.574,"RA_OF_ASC_NODE":354.7536,"ARG_OF_PERICENTER":356.7509,"MEAN_ANOMALY":0.3611,"EPHEMERIS_TYPE":0,"CLASSIFICATION_TYPE":"U","NORAD_CAT_ID":24435,"ELEMENT_SET_NO":999,"REV_AT_EPOCH":10828,"BSTAR":0,"MEAN_MOTION_DOT":-2.61e-6,"MEAN_MOTION_DDOT":0},{"OBJECT_NAME":"SL-12 R/B(2)","OBJECT_ID":"1996-058D","EPOCH":"2026-04-26T06:53:00.174912","MEAN_MOTION":1.00261603,"ECCENTRICITY":0.0007385,"INCLINATION":14.3881,"RA_OF_ASC_NODE":351.4567,"ARG_OF_PERICENTER":123.2553,"MEAN_ANOMALY":236.7142,"EPHEMERIS_TYPE":0,"CLASSIFICATION_TYPE":"U","NORAD_CAT_ID":24438,"ELEMENT_SET_NO":999,"REV_AT_EPOCH":10831,"BSTAR":0,"MEAN_MOTION_DOT":1.11e-6,"MEAN_MOTION_DDOT":0},{"OBJECT_NAME":"AFRICASAT-2 (MEASAT-2)","OBJECT_ID":"1996-063B","EPOCH":"2026-04-25T03:10:21.545184","MEAN_MOTION":0.99659398,"ECCENTRICITY":0.00040574,"INCLINATION":12.1801,"RA_OF_ASC_NODE":29.3893,"ARG_OF_PERICENTER":208.4624,"MEAN_ANOMALY":347.3502,"EPHEMERIS_TYPE":0,"CLASSIFICATION_TYPE":"U","NORAD_CAT_ID":24653,"ELEMENT_SET_NO":999,"REV_AT_EPOCH":10775,"BSTAR":0,"MEAN_MOTION_DOT":-2.92e-6,"MEAN_MOTION_DDOT":0},{"OBJECT_NAME":"INMARSAT 3-F3","OBJECT_ID":"1996-070A","EPOCH":"2026-04-26T07:11:13.427808","MEAN_MOTION":0.99978274,"ECCENTRICITY":0.0004732,"INCLINATION":10.2082,"RA_OF_ASC_NODE":50.1401,"ARG_OF_PERICENTER":322.9242,"MEAN_ANOMALY":46.8179,"EPHEMERIS_TYPE":0,"CLASSIFICATION_TYPE":"U","NORAD_CAT_ID":24674,"ELEMENT_SET_NO":999,"REV_AT_EPOCH":10739,"BSTAR":0,"MEAN_MOTION_DOT":-2.47e-6,"MEAN_MOTION_DDOT":0},{"OBJECT_NAME":"ATLAS 2A CENTAUR R/B","OBJECT_ID":"1996-070B","EPOCH":"2026-04-26T10:01:37.202016","MEAN_MOTION":2.22633895,"ECCENTRICITY":0.7005974,"INCLINATION":22.1304,"RA_OF_ASC_NODE":164.6135,"ARG_OF_PERICENTER":326.6259,"MEAN_ANOMALY":271.7131,"EPHEMERIS_TYPE":0,"CLASSIFICATION_TYPE":"U","NORAD_CAT_ID":24675,"ELEMENT_SET_NO":999,"REV_AT_EPOCH":23876,"BSTAR":0,"MEAN_MOTION_DOT":4.0e-7,"MEAN_MOTION_DDOT":0},{"OBJECT_NAME":"ISO DEB","OBJECT_ID":"1995-062C","EPOCH":"2026-04-26T10:54:47.102112","MEAN_MOTION":1.00141895,"ECCENTRICITY":0.8240433,"INCLINATION":3.126,"RA_OF_ASC_NODE":26.9066,"ARG_OF_PERICENTER":19.1027,"MEAN_ANOMALY":22.7861,"EPHEMERIS_TYPE":0,"CLASSIFICATION_TYPE":"U","NORAD_CAT_ID":24700,"ELEMENT_SET_NO":999,"REV_AT_EPOCH":4247,"BSTAR":0,"MEAN_MOTION_DOT":-6.5e-6,"MEAN_MOTION_DDOT":0}]
